[{"OBJECT_NAME":"ALOS (DAICHI)","OBJECT_ID":"2006-002A","EPOCH":"2026-03-24T21:18:47.638368","MEAN_MOTION":14.69854515,"ECCENTRICITY":7.567e-5,"INCLINATION":98.1242,"RA_OF_ASC_NODE":39.77,"ARG_OF_PERICENTER":98.5469,"MEAN_ANOMALY":261.5822,"EPHEMERIS_TYPE":0,"CLASSIFICATION_TYPE":"U","NORAD_CAT_ID":28931,"ELEMENT_SET_NO":999,"REV_AT_EPOCH":7571,"BSTAR":0.00022975554,"MEAN_MOTION_DOT":1.324e-5,"MEAN_MOTION_DDOT":0},{"OBJECT_NAME":"H-2A R/B","OBJECT_ID":"2006-002B","EPOCH":"2026-03-24T23:34:30.242208","MEAN_MOTION":15.1674652,"ECCENTRICITY":0.00523291,"INCLINATION":98.2441,"RA_OF_ASC_NODE":232.3273,"ARG_OF_PERICENTER":188.5964,"MEAN_ANOMALY":171.4376,"EPHEMERIS_TYPE":0,"CLASSIFICATION_TYPE":"U","NORAD_CAT_ID":28932,"ELEMENT_SET_NO":999,"REV_AT_EPOCH":9675,"BSTAR":0.00044629928,"MEAN_MOTION_DOT":8.99e-5,"MEAN_MOTION_DDOT":0},{"OBJECT_NAME":"RESURS-DK 1","OBJECT_ID":"2006-021A","EPOCH":"2026-03-24T17:50:33.912384","MEAN_MOTION":15.12841136,"ECCENTRICITY":7.816e-5,"INCLINATION":69.9339,"RA_OF_ASC_NODE":198.0817,"ARG_OF_PERICENTER":79.2004,"MEAN_ANOMALY":280.925,"EPHEMERIS_TYPE":0,"CLASSIFICATION_TYPE":"U","NORAD_CAT_ID":29228,"ELEMENT_SET_NO":999,"REV_AT_EPOCH":8980,"BSTAR":0.00014252087,"MEAN_MOTION_DOT":2.404e-5,"MEAN_MOTION_DDOT":0},{"OBJECT_NAME":"CZ-4B R/B","OBJECT_ID":"2006-046C","EPOCH":"2026-03-24T20:19:00.767424","MEAN_MOTION":15.17054374,"ECCENTRICITY":0.00323554,"INCLINATION":97.5564,"RA_OF_ASC_NODE":128.7141,"ARG_OF_PERICENTER":212.5419,"MEAN_ANOMALY":147.382,"EPHEMERIS_TYPE":0,"CLASSIFICATION_TYPE":"U","NORAD_CAT_ID":29507,"ELEMENT_SET_NO":999,"REV_AT_EPOCH":6234,"BSTAR":0.00020893533,"MEAN_MOTION_DOT":4.119e-5,"MEAN_MOTION_DDOT":0},{"OBJECT_NAME":"CZ-2C R/B","OBJECT_ID":"2007-010B","EPOCH":"2026-03-24T22:38:07.562976","MEAN_MOTION":14.20251483,"ECCENTRICITY":0.00579297,"INCLINATION":98.3995,"RA_OF_ASC_NODE":196.4586,"ARG_OF_PERICENTER":249.3816,"MEAN_ANOMALY":110.1142,"EPHEMERIS_TYPE":0,"CLASSIFICATION_TYPE":"U","NORAD_CAT_ID":31114,"ELEMENT_SET_NO":999,"REV_AT_EPOCH":98188,"BSTAR":7.9409121e-5,"MEAN_MOTION_DOT":1.31e-6,"MEAN_MOTION_DDOT":0},{"OBJECT_NAME":"COSMO-SKYMED 1","OBJECT_ID":"2007-023A","EPOCH":"2026-03-24T23:24:28.518048","MEAN_MOTION":14.96644486,"ECCENTRICITY":0.00010327,"INCLINATION":97.888,"RA_OF_ASC_NODE":275.132,"ARG_OF_PERICENTER":89.6361,"MEAN_ANOMALY":270.4978,"EPHEMERIS_TYPE":0,"CLASSIFICATION_TYPE":"U","NORAD_CAT_ID":31598,"ELEMENT_SET_NO":999,"REV_AT_EPOCH":1719,"BSTAR":0.00024230547,"MEAN_MOTION_DOT":2.703e-5,"MEAN_MOTION_DDOT":0},{"OBJECT_NAME":"COSMOS 2428","OBJECT_ID":"2007-029A","EPOCH":"2026-03-24T23:13:57.677952","MEAN_MOTION":14.1294807,"ECCENTRICITY":0.00096328,"INCLINATION":70.944,"RA_OF_ASC_NODE":171.2775,"ARG_OF_PERICENTER":261.465,"MEAN_ANOMALY":98.538,"EPHEMERIS_TYPE":0,"CLASSIFICATION_TYPE":"U","NORAD_CAT_ID":31792,"ELEMENT_SET_NO":999,"REV_AT_EPOCH":96625,"BSTAR":1.6091562e-5,"MEAN_MOTION_DOT":-1.8e-7,"MEAN_MOTION_DDOT":0},{"OBJECT_NAME":"SL-16 R/B","OBJECT_ID":"2007-029B","EPOCH":"2026-03-24T22:15:42.687360","MEAN_MOTION":14.14842257,"ECCENTRICITY":0.00025494,"INCLINATION":70.9753,"RA_OF_ASC_NODE":140.3552,"ARG_OF_PERICENTER":277.3252,"MEAN_ANOMALY":255.2018,"EPHEMERIS_TYPE":0,"CLASSIFICATION_TYPE":"U","NORAD_CAT_ID":31793,"ELEMENT_SET_NO":999,"REV_AT_EPOCH":96752,"BSTAR":0.00011988487,"MEAN_MOTION_DOT":1.84e-6,"MEAN_MOTION_DDOT":0},{"OBJECT_NAME":"KORONAS-FOTON","OBJECT_ID":"2009-003A","EPOCH":"2026-03-24T22:25:35.694624","MEAN_MOTION":15.43714932,"ECCENTRICITY":0.00118163,"INCLINATION":82.4279,"RA_OF_ASC_NODE":260.021,"ARG_OF_PERICENTER":100.3246,"MEAN_ANOMALY":259.9334,"EPHEMERIS_TYPE":0,"CLASSIFICATION_TYPE":"U","NORAD_CAT_ID":33504,"ELEMENT_SET_NO":999,"REV_AT_EPOCH":94809,"BSTAR":0.00027776336,"MEAN_MOTION_DOT":0.00012608,"MEAN_MOTION_DDOT":0},{"OBJECT_NAME":"CZ-2C R/B","OBJECT_ID":"2011-030B","EPOCH":"2026-03-24T20:53:07.817568","MEAN_MOTION":14.81274019,"ECCENTRICITY":0.00512704,"INCLINATION":97.857,"RA_OF_ASC_NODE":40.8325,"ARG_OF_PERICENTER":301.9877,"MEAN_ANOMALY":74.437,"EPHEMERIS_TYPE":0,"CLASSIFICATION_TYPE":"U","NORAD_CAT_ID":37731,"ELEMENT_SET_NO":999,"REV_AT_EPOCH":79234,"BSTAR":0.00019077795,"MEAN_MOTION_DOT":1.466e-5,"MEAN_MOTION_DDOT":0},{"OBJECT_NAME":"H-2A R/B","OBJECT_ID":"2012-025E","EPOCH":"2026-03-24T22:04:03.523872","MEAN_MOTION":14.95270697,"ECCENTRICITY":0.00427339,"INCLINATION":98.4757,"RA_OF_ASC_NODE":52.1886,"ARG_OF_PERICENTER":262.6619,"MEAN_ANOMALY":96.9741,"EPHEMERIS_TYPE":0,"CLASSIFICATION_TYPE":"U","NORAD_CAT_ID":38341,"ELEMENT_SET_NO":999,"REV_AT_EPOCH":75049,"BSTAR":0.00030161974,"MEAN_MOTION_DOT":3.311e-5,"MEAN_MOTION_DDOT":0},{"OBJECT_NAME":"SHIJIAN-16 (SJ-16)","OBJECT_ID":"2013-057A","EPOCH":"2026-03-24T23:32:04.004160","MEAN_MOTION":14.92410499,"ECCENTRICITY":0.00152284,"INCLINATION":74.9725,"RA_OF_ASC_NODE":156.1423,"ARG_OF_PERICENTER":72.6877,"MEAN_ANOMALY":287.5976,"EPHEMERIS_TYPE":0,"CLASSIFICATION_TYPE":"U","NORAD_CAT_ID":39358,"ELEMENT_SET_NO":999,"REV_AT_EPOCH":67378,"BSTAR":0.00022512567,"MEAN_MOTION_DOT":2.282e-5,"MEAN_MOTION_DDOT":0},{"OBJECT_NAME":"SL-4 R/B","OBJECT_ID":"2014-021B","EPOCH":"2026-03-24T19:39:45.851616","MEAN_MOTION":15.39681109,"ECCENTRICITY":0.00960976,"INCLINATION":51.6056,"RA_OF_ASC_NODE":263.4395,"ARG_OF_PERICENTER":158.0915,"MEAN_ANOMALY":202.422,"EPHEMERIS_TYPE":0,"CLASSIFICATION_TYPE":"U","NORAD_CAT_ID":39679,"ELEMENT_SET_NO":999,"REV_AT_EPOCH":65860,"BSTAR":0.00034962774,"MEAN_MOTION_DOT":0.00016082,"MEAN_MOTION_DDOT":0},{"OBJECT_NAME":"ALOS-2","OBJECT_ID":"2014-029A","EPOCH":"2026-03-24T22:27:52.571232","MEAN_MOTION":14.7943019,"ECCENTRICITY":0.00018295,"INCLINATION":97.9186,"RA_OF_ASC_NODE":182.311,"ARG_OF_PERICENTER":106.7561,"MEAN_ANOMALY":253.3852,"EPHEMERIS_TYPE":0,"CLASSIFICATION_TYPE":"U","NORAD_CAT_ID":39766,"ELEMENT_SET_NO":999,"REV_AT_EPOCH":63912,"BSTAR":0.00014585354,"MEAN_MOTION_DOT":1.037e-5,"MEAN_MOTION_DDOT":0},{"OBJECT_NAME":"YAOGAN-29","OBJECT_ID":"2015-069A","EPOCH":"2026-03-24T23:24:53.961120","MEAN_MOTION":14.83013785,"ECCENTRICITY":7.918e-5,"INCLINATION":98.0121,"RA_OF_ASC_NODE":112.4446,"ARG_OF_PERICENTER":13.5286,"MEAN_ANOMALY":346.5949,"EPHEMERIS_TYPE":0,"CLASSIFICATION_TYPE":"U","NORAD_CAT_ID":41038,"ELEMENT_SET_NO":999,"REV_AT_EPOCH":55814,"BSTAR":0.0001378651,"MEAN_MOTION_DOT":1.066e-5,"MEAN_MOTION_DDOT":0},{"OBJECT_NAME":"ASTRO-H (HITOMI)","OBJECT_ID":"2016-012A","EPOCH":"2026-03-24T20:05:36.748896","MEAN_MOTION":15.10096778,"ECCENTRICITY":0.00096067,"INCLINATION":30.9989,"RA_OF_ASC_NODE":258.7902,"ARG_OF_PERICENTER":123.8688,"MEAN_ANOMALY":236.2865,"EPHEMERIS_TYPE":0,"CLASSIFICATION_TYPE":"U","NORAD_CAT_ID":41337,"ELEMENT_SET_NO":999,"REV_AT_EPOCH":55452,"BSTAR":0.00016414428,"MEAN_MOTION_DOT":2.837e-5,"MEAN_MOTION_DDOT":0}]
